{
  "type": "FeatureCollection",
  "features": [
    {
      "type": "Feature",
      "properties": {
        "norad_id": 26766,
        "name": "INTELSAT 10 (IS-10)",
        "group": "intelsat",
        "lat": 8.32929052226843,
        "lon": 166.54543984596484,
        "alt_km": 36139.43449799589,
        "timestamp": "2025-12-13T20:38:50.662579+00:00",
        "meta_object_name": "INTELSAT 10 (IS-10)",
        "meta_object_id": "2001-019A",
        "meta_epoch": "2025-12-12T13:59:22.280064",
        "meta_mean_motion": 0.99078624,
        "meta_eccentricity": 0.00077602,
        "meta_inclination": 8.6297,
        "meta_ra_of_asc_node": 61.1594,
        "meta_arg_of_pericenter": 225.253,
        "meta_mean_anomaly": 144.4037,
        "meta_ephemeris_type": 0,
        "meta_classification_type": "U",
        "meta_norad_cat_id": 26766,
        "meta_element_set_no": 999,
        "meta_rev_at_epoch": 4373,
        "meta_bstar": 0,
        "meta_mean_motion_dot": -2.8e-06,
        "meta_mean_motion_ddot": 0,
        "tle_line1": "1 26766U 01019A   25346.58289676 -.00000280  00000+0  00000+0 0  9998",
        "tle_line2": "2 26766   8.6297  61.1594 0007760 225.2530 144.4037  0.99078624 43731"
      },
      "geometry": {
        "type": "Point",
        "coordinates": [
          166.54543984596484,
          8.32929052226843
        ]
      }
    },
    {
      "type": "Feature",
      "properties": {
        "norad_id": 26900,
        "name": "INTELSAT 902 (IS-902)",
        "group": "intelsat",
        "lat": -5.648004219429672,
        "lon": -17.55858721573553,
        "alt_km": 35784.72774099729,
        "timestamp": "2025-12-13T20:38:50.662604+00:00",
        "meta_object_name": "INTELSAT 902 (IS-902)",
        "meta_object_id": "2001-039A",
        "meta_epoch": "2025-12-11T04:42:42.842016",
        "meta_mean_motion": 1.00272526,
        "meta_eccentricity": 0.00044264,
        "meta_inclination": 5.6424,
        "meta_ra_of_asc_node": 74.0881,
        "meta_arg_of_pericenter": 184.9809,
        "meta_mean_anomaly": 201.6699,
        "meta_ephemeris_type": 0,
        "meta_classification_type": "U",
        "meta_norad_cat_id": 26900,
        "meta_element_set_no": 999,
        "meta_rev_at_epoch": 8881,
        "meta_bstar": 0,
        "meta_mean_motion_dot": -2.78e-06,
        "meta_mean_motion_ddot": 0,
        "tle_line1": "1 26900U 01039A   25345.19632919 -.00000278  00000+0  00000+0 0  9995",
        "tle_line2": "2 26900   5.6424  74.0881 0004426 184.9809 201.6699  1.00272526 88816"
      },
      "geometry": {
        "type": "Point",
        "coordinates": [
          -17.55858721573553,
          -5.648004219429672
        ]
      }
    },
    {
      "type": "Feature",
      "properties": {
        "norad_id": 27380,
        "name": "INTELSAT 904 (IS-904)",
        "group": "intelsat",
        "lat": -6.077998481601162,
        "lon": 1.1254508961661565,
        "alt_km": 35783.44209281161,
        "timestamp": "2025-12-13T20:38:50.662621+00:00",
        "meta_object_name": "INTELSAT 904 (IS-904)",
        "meta_object_id": "2002-007A",
        "meta_epoch": "2025-12-13T03:01:39.174240",
        "meta_mean_motion": 1.00272668,
        "meta_eccentricity": 0.00015319,
        "meta_inclination": 6.4559,
        "meta_ra_of_asc_node": 71.4281,
        "meta_arg_of_pericenter": 230.0297,
        "meta_mean_anomaly": 154.5144,
        "meta_ephemeris_type": 0,
        "meta_classification_type": "U",
        "meta_norad_cat_id": 27380,
        "meta_element_set_no": 999,
        "meta_rev_at_epoch": 4990,
        "meta_bstar": 0,
        "meta_mean_motion_dot": -2.14e-06,
        "meta_mean_motion_ddot": 0,
        "tle_line1": "1 27380U 02007A   25347.12614785 -.00000214  00000+0  00000+0 0  9990",
        "tle_line2": "2 27380   6.4559  71.4281 0001531 230.0297 154.5144  1.00272668 49905"
      },
      "geometry": {
        "type": "Point",
        "coordinates": [
          1.1254508961661565,
          -6.077998481601162
        ]
      }
    },
    {
      "type": "Feature",
      "properties": {
        "norad_id": 27426,
        "name": "DIRECTV 5 (TEMPO 1)",
        "group": "intelsat",
        "lat": -1.8595584349231657,
        "lon": -77.68658448518957,
        "alt_km": 35771.8085436402,
        "timestamp": "2025-12-13T20:38:50.662635+00:00",
        "meta_object_name": "DIRECTV 5 (TEMPO 1)",
        "meta_object_id": "2002-023A",
        "meta_epoch": "2025-12-13T06:13:41.721024",
        "meta_mean_motion": 1.00272197,
        "meta_eccentricity": 0.00034359,
        "meta_inclination": 4.4037,
        "meta_ra_of_asc_node": 77.6472,
        "meta_arg_of_pericenter": 197.0253,
        "meta_mean_anomaly": 150.8215,
        "meta_ephemeris_type": 0,
        "meta_classification_type": "U",
        "meta_norad_cat_id": 27426,
        "meta_element_set_no": 999,
        "meta_rev_at_epoch": 8625,
        "meta_bstar": 0,
        "meta_mean_motion_dot": -4.4e-07,
        "meta_mean_motion_ddot": 0,
        "tle_line1": "1 27426U 02023A   25347.25951066 -.00000044  00000+0  00000+0 0  9990",
        "tle_line2": "2 27426   4.4037  77.6472 0003435 197.0253 150.8215  1.00272197 86258"
      },
      "geometry": {
        "type": "Point",
        "coordinates": [
          -77.68658448518957,
          -1.8595584349231657
        ]
      }
    },
    {
      "type": "Feature",
      "properties": {
        "norad_id": 27438,
        "name": "INTELSAT 905 (IS-905)",
        "group": "intelsat",
        "lat": -0.37637306477329013,
        "lon": -104.71860521483603,
        "alt_km": 35774.48432525857,
        "timestamp": "2025-12-13T20:38:50.662648+00:00",
        "meta_object_name": "INTELSAT 905 (IS-905)",
        "meta_object_id": "2002-027A",
        "meta_epoch": "2025-12-12T10:15:53.786304",
        "meta_mean_motion": 1.00273335,
        "meta_eccentricity": 0.00027053,
        "meta_inclination": 6.2853,
        "meta_ra_of_asc_node": 72.0601,
        "meta_arg_of_pericenter": 197.9433,
        "meta_mean_anomaly": 188.1472,
        "meta_ephemeris_type": 0,
        "meta_classification_type": "U",
        "meta_norad_cat_id": 27438,
        "meta_element_set_no": 999,
        "meta_rev_at_epoch": 4949,
        "meta_bstar": 0,
        "meta_mean_motion_dot": 1.03e-06,
        "meta_mean_motion_ddot": 0,
        "tle_line1": "1 27438U 02027A   25346.42770586  .00000103  00000+0  00000+0 0  9996",
        "tle_line2": "2 27438   6.2853  72.0601 0002705 197.9433 188.1472  1.00273335 49497"
      },
      "geometry": {
        "type": "Point",
        "coordinates": [
          -104.71860521483603,
          -0.37637306477329013
        ]
      }
    },
    {
      "type": "Feature",
      "properties": {
        "norad_id": 27445,
        "name": "GALAXY 3C (G-3C)",
        "group": "intelsat",
        "lat": -1.986069257075591,
        "lon": -62.40599667848029,
        "alt_km": 35789.384554233024,
        "timestamp": "2025-12-13T20:38:50.662661+00:00",
        "meta_object_name": "GALAXY 3C (G-3C)",
        "meta_object_id": "2002-030A",
        "meta_epoch": "2025-12-13T04:26:16.067616",
        "meta_mean_motion": 1.00271553,
        "meta_eccentricity": 0.00010934,
        "meta_inclination": 3.2656,
        "meta_ra_of_asc_node": 80.5019,
        "meta_arg_of_pericenter": 87.1263,
        "meta_mean_anomaly": 246.1952,
        "meta_ephemeris_type": 0,
        "meta_classification_type": "U",
        "meta_norad_cat_id": 27445,
        "meta_element_set_no": 999,
        "meta_rev_at_epoch": 4462,
        "meta_bstar": 0,
        "meta_mean_motion_dot": -1.39e-06,
        "meta_mean_motion_ddot": 0,
        "tle_line1": "1 27445U 02030A   25347.18490819 -.00000139  00000+0  00000+0 0  9990",
        "tle_line2": "2 27445   3.2656  80.5019 0001093  87.1263 246.1952  1.00271553 44628"
      },
      "geometry": {
        "type": "Point",
        "coordinates": [
          -62.40599667848029,
          -1.986069257075591
        ]
      }
    },
    {
      "type": "Feature",
      "properties": {
        "norad_id": 27513,
        "name": "INTELSAT 906 (IS-906)",
        "group": "intelsat",
        "lat": 1.960996415807933,
        "lon": 96.52586410520182,
        "alt_km": 35811.827742661626,
        "timestamp": "2025-12-13T20:38:50.662674+00:00",
        "meta_object_name": "INTELSAT 906 (IS-906)",
        "meta_object_id": "2002-041A",
        "meta_epoch": "2025-12-13T05:11:41.718048",
        "meta_mean_motion": 1.00271579,
        "meta_eccentricity": 0.00062004,
        "meta_inclination": 5.3302,
        "meta_ra_of_asc_node": 75.2255,
        "meta_arg_of_pericenter": 193.1726,
        "meta_mean_anomaly": 315.8052,
        "meta_ephemeris_type": 0,
        "meta_classification_type": "U",
        "meta_norad_cat_id": 27513,
        "meta_element_set_no": 999,
        "meta_rev_at_epoch": 8516,
        "meta_bstar": 0,
        "meta_mean_motion_dot": 2.5e-07,
        "meta_mean_motion_ddot": 0,
        "tle_line1": "1 27513U 02041A   25347.21645507  .00000025  00000+0  00000+0 0  9991",
        "tle_line2": "2 27513   5.3302  75.2255 0006200 193.1726 315.8052  1.00271579 85162"
      },
      "geometry": {
        "type": "Point",
        "coordinates": [
          96.52586410520182,
          1.960996415807933
        ]
      }
    }
  ]
}